P/2019 A8 (PANSTARRS),e,3.0066,125.7701,42.6807,3.669137,0.1402356,0.42630456,132.8393,09/04.0/2021,2000,g 16.0,4.0
# From MPC118842
C/2019 A9 (PANSTARRS),e,84.1697,278.3835,237.9444,39.42787,0.0039811,0.96370863,3.0683,09/04.0/2021,2000,g 15.0,4.0
# From MPC114606
C/2019 B1 (Africano),e,123.3653,290.4324,174.8251,142.3464,0.0005803,0.98878386,0.0000,03/19.5330/2019,2000,g 16.0,4.0
# From MPC115885
P/2019 B2 (Groeller),e,16.9182,175.9657,0.1631,3.878985,0.1290110,0.37150977,105.4306,09/04.0/2021,2000,g 14.5,4.0
# From MPEC 2021-P47
C/2019 B3 (PANSTARRS),h,01/20.2568/2021,66.5359,358.4348,263.9286,1.001932,6.823174,2000,5.5,4.0
# From MPEC 2021-P47
C/2019 C1 (ATLAS),e,36.0332,212.3859,319.1703,705.5961,0.0000526,0.99067345,0.0000,05/05.3083/2020,2000,g 10.0,4.0
# From MPC118842
C/2019 D1 (Flewelling),e,34.0630,231.7068,70.5609,142.7140,0.0005781,0.98892828,0.0000,05/11.8499/2019,2000,g 13.0,4.0
# From MPEC 2021-P47
C/2019 E3 (ATLAS),h,11/13.3065/2023,84.2968,347.2516,280.6326,1.002920,10.314164,2000,2.5,4.0
# From MPEC 2021-P47
C/2019 F1 (ATLAS-Africano),h,06/22.8938/2021,54.1745,38.7231,251.1384,1.003749,3.595729,2000,5.5,4.0
# From MPEC 2021-P47
C/2019 F2 (ATLAS),e,19.2193,175.5956,11.4838,16.70088,0.0144409,0.86571488,10.4858,09/04.0/2021,2000,g 12.0,4.0
# From MPEC 2021-P47
A/2019 G2,e,159.2051,208.1508,82.6193,604.5138,0.0000663,0.99621062,0.0000,12/09.8763/2019,2000,g 16.5,2.0
# From MPEC 2021-N06
A/2019 G4,h,09/16.1327/2018,138.3851,130.4642,287.8713,1.001958,5.856970,2000,13.0,2.0
# From MPC114607
P/2019 GG21 (PANSTARRS),e,6.0841,340.5715,208.5930,7.474857,0.0482281,0.47265543,40.8479,09/04.0/2021,2000,g 12.0,4.0
# From MPC115885
C/2019 H1 (NEOWISE),e,104.5538,269.2099,19.3410,239.6871,0.0002656,0.99229697,0.0000,04/27.8711/2019,2000,g 15.5,4.0
# From MPC118842
C/2019 J1 (Lemmon),e,24.5500,98.0994,167.7945,69.38623,0.0017053,0.96424390,1.4990,09/04.0/2021,2000,g 12.0,4.0
# From MPC115885
C/2019 J2 (Palomar),e,105.1719,25.4972,98.7197,685.3042,0.0000549,0.99747973,0.0000,07/19.7348/2019,2000,g 13.0,4.0
# From MPC117071
C/2019 J3 (ATLAS),h,08/02.0579/2019,131.4047,270.5395,16.6084,1.000501,2.374621,2000,13.5,4.0
# From MPC117071
C/2019 JU6 (ATLAS),e,148.3160,21.7570,94.9390,350.7098,0.0001501,0.99416439,0.0000,05/31.9831/2019,2000,g 14.5,4.0
# From MPEC 2021-P47
C/2019 K1 (ATLAS),h,02/13.0035/2020,87.1254,73.3747,265.7139,1.000054,2.012580,2000,10.0,4.0
# From MPC119997
C/2019 K4 (Ye),e,105.2987,180.1523,139.7797,1359,0.0000197,0.99833630,0.0000,06/16.1626/2019,2000,g 12.5,4.0
# From MPEC 2021-P47
C/2019 K5 (Young),e,15.3170,177.1429,175.0123,160.8712,0.0004830,0.98734290,0.0000,06/22.9711/2019,2000,g 13.0,4.0
# From MPEC 2021-P47
C/2019 K6 (PANSTARRS),e,132.3821,42.9551,187.6394,1904,0.0000119,0.99793610,0.0000,05/20.2866/2020,2000,g 11.5,4.0
# From MPEC 2021-P47
C/2019 K7 (Smith),h,06/17.1289/2020,103.5422,307.9299,27.3337,1.000023,4.475949,2000,6.0,4.0
# From MPEC 2021-P47
C/2019 K8 (ATLAS),e,93.2123,291.0453,85.3730,2863,0.0000064,0.99888405,0.0000,07/21.4973/2019,2000,g 11.5,4.0
# From MPC118095
C/2019 L1 (PANSTARRS),e,9.9906,254.4192,49.9854,9.840077,0.0319305,0.70601708,24.0951,09/04.0/2021,2000,g 13.5,4.0
# From MPC115886
C/2019 L2 (NEOWISE),e,152.1933,12.5661,18.7643,24.86795,0.0079477,0.93477611,7.0441,09/04.0/2021,2000,g 16.0,4.0
# From MPEC 2020-W26
P/2019 LD2 (ATLAS),e,11.6065,179.5833,122.6729,5.257848,0.0817508,0.12970063,42.5850,09/04.0/2021,2000,g  8.5,4.0
# From MPEC 2021-P47
C/2019 L3 (ATLAS),h,01/09.6434/2022,48.3643,290.7888,171.6160,1.001342,3.554457,2000,4.5,4.0
# From MPC118095
C/2019 LB7 (Kleyna),e,164.2912,3.9006,336.4759,34.58576,0.0048457,0.92818378,4.3240,09/04.0/2021,2000,g 17.0,4.0
# From MPC118843
P/2019 M2 (ATLAS),e,12.2814,307.5994,332.5796,3.027273,0.1871228,0.64812996,150.5230,09/04.0/2021,2000,g 21.2,4.0
# From MPC118095
C/2019 M3 (ATLAS),h,01/02.2342/2019,99.4769,154.9055,87.8983,1.000555,2.418871,2000,12.2,4.0
# From MPEC 2021-O56
C/2019 N1 (ATLAS),e,82.4280,13.5756,193.4440,9105,0.0000011,0.99981277,0.0000,12/01.7891/2020,2000,g  7.5,4.0
# From MPEC 2021-N06
C/2019 NJ3 (Lemmon),h,10/22.4724/2020,99.4387,142.4540,246.8672,1.001243,4.361969,2000,9.0,4.0
# From MPEC 2021-P47
A/2019 O2,e,93.2903,48.2987,129.6673,57.35292,0.0022692,0.83117484,358.6818,09/04.0/2021,2000,g  9.5,2.0
# From MPEC 2021-P47
C/2019 O3 (Palomar),h,03/08.4560/2021,89.8165,300.3838,60.0746,1.002925,8.819575,2000,3.5,4.0
# From MPEC 2021-P47
A/2019 O4,e,115.0915,354.9111,61.8528,32.95821,0.0052091,0.88938830,2.9786,09/04.0/2021,2000,g 15.5,2.0
# From MPEC 2021-N06
C/2019 Q1 (Lemmon),h,07/20.2361/2020,155.7257,42.4668,56.1204,1.000643,4.998576,2000,8.5,4.0
# From MPC117072
A/2019 Q2,e,159.0249,188.0243,176.3017,57.15129,0.0022812,0.97798789,0.0000,07/22.1573/2019,2000,g 18.0,2.0
# From MPC117072
C/2019 Q3 (PANSTARRS),h,08/21.5081/2018,65.5252,151.3225,152.7202,1.003631,7.256576,2000,8.5,4.0
# From MPC117072
P/2019 S2 (PANSTARRS),e,10.4719,93.1348,216.9702,4.738078,0.0955654,0.20665954,88.3834,09/04.0/2021,2000,g 13.5,4.0
# From MPC118096
P/2019 S3 (PANSTARRS),e,8.6947,150.1598,212.9911,3.414971,0.1561794,0.47108384,115.5135,09/04.0/2021,2000,g 18.3,4.0
# From MPEC 2021-N06
C/2019 S4 (Lemmon),e,92.0311,63.1603,71.3661,231.7890,0.0002793,0.98514923,0.0000,04/07.9233/2020,2000,g 11.0,4.0
# From MPEC 2021-P47
A/2019 T1,e,120.8712,6.9499,91.0489,38.31377,0.0041560,0.88824468,0.9667,09/04.0/2021,2000,g 13.0,2.0
# From MPEC 2021-P47
C/2019 T2 (Lemmon),e,111.4889,155.6426,239.3926,1909,0.0000118,0.99861409,0.0000,04/22.2900/2021,2000,g  9.0,4.0
# From MPEC 2021-P47
C/2019 T3 (ATLAS),e,121.8619,139.5213,112.3009,3060,0.0000058,0.99805689,0.0000,03/02.9475/2021,2000,g  6.8,4.0
# From MPEC 2021-P47
C/2019 T4 (ATLAS),e,53.6229,199.9437,351.2142,1021,0.0000302,0.99584643,0.0000,06/09.2300/2022,2000,g  5.0,4.0
# From MPEC 2021-P47
P/2019 T5 (ATLAS),e,33.4373,247.6689,189.5719,7.997486,0.0435787,0.80908259,33.3315,09/04.0/2021,2000,g 15.0,4.0
# From MPEC 2021-P47
P/2019 T6 (PANSTARRS),e,18.6946,71.2854,328.9116,5.434630,0.0777945,0.62265905,51.8206,09/04.0/2021,2000,g 15.5,4.0
# From MPC118096
P/2019 U4 (PANSTARRS),e,11.6944,200.0094,180.9767,3.520461,0.1492123,0.47566434,106.9011,09/04.0/2021,2000,g 19.0,4.0
# From MPEC 2021-P47
C/2019 U5 (PANSTARRS),h,03/30.1371/2023,113.5187,2.6431,181.5537,1.000806,3.622866,2000,4.5,4.0
# From MPEC 2021-P47
C/2019 U6 (Lemmon),e,60.9992,235.6988,329.6545,395.2133,0.0001254,0.99768651,0.0000,06/18.7630/2020,2000,g 10.0,4.0
# From MPC119998
C/2019 V1 (Borisov),e,61.8649,83.1953,51.1837,1621,0.0000151,0.99808947,0.0000,07/16.4661/2020,2000,g 11.0,4.0
# From MPEC 2021-P47
P/2019 V2 (Groeller),e,11.8055,189.1796,335.9641,7.510490,0.0478852,0.33155613,15.3078,09/04.0/2021,2000,g 10.0,4.0
# From MPC119998
P/2019 W1 (PANSTARRS),e,23.4643,35.3899,18.6857,4.549880,0.1015557,0.26645964,86.3455,09/04.0/2021,2000,g 12.9,4.0
# From MPEC 2021-P47
P/2019 X1 (Pruyne),e,10.2458,43.6867,36.8023,6.172971,0.0642633,0.30292083,49.8498,09/04.0/2021,2000,g 10.4,4.0
# From MPC119999
C/2019 Y1 (ATLAS),e,73.2835,31.5248,57.9614,85.64397,0.0012435,0.99029367,0.0000,03/15.5906/2020,2000,g 13.7,4.0
# From MPEC 2020-L06
C/2019 Y4 (ATLAS),h,05/31.0493/2020,45.8160,120.9346,177.2684,1.001382,0.251399,2000,11.6,6.0
# From MPEC 2020-L06
C/2019 Y4-A (ATLAS),h,05/31.0493/2020,45.8160,120.9346,177.2684,1.001382,0.251399,2000,11.6,6.0
# From MPEC 2020-L06
C/2019 Y4-B (ATLAS),e,45.4505,120.6305,177.4015,1293,0.0000212,0.99980444,0.0000,05/31.0279/2020,2000,g 12.8,6.0
# From MPEC 2020-L06
C/2019 Y4-C (ATLAS),h,05/31.0071/2020,45.5982,120.6604,177.3018,1.002101,0.252452,2000,12.7,6.0
# From MPEC 2020-L06
C/2019 Y4-D (ATLAS),e,45.6399,121.0406,177.4401,67.92725,0.0017605,0.99629250,0.0000,05/31.1254/2020,2000,g 12.5,6.0
# From MPEC 2021-P47
C/2019 Y5 (PANSTARRS),e,82.8077,51.7771,303.5105,821.8441,0.0000418,0.99401969,0.0000,08/18.2387/2019,2000,g 11.0,4.0
# From MPEC 2020-L06
C/2020 A2 (Iwamoto),e,120.7337,286.3727,68.1929,1359,0.0000197,0.99928079,0.0000,01/08.4263/2020,2000,g 13.5,4.0
# From MPEC 2020-L06
C/2020 A3 (ATLAS),h,07/29.8408/2019,146.7744,120.3802,271.1723,1.025802,5.839038,2000,8.0,4.0
# From MPEC 2020-L06
C/2020 B3 (Rankin),e,20.7083,185.8365,325.0385,1207,0.0000235,0.99723080,0.0000,10/19.6050/2019,2000,g 13.0,4.0
# From MPEC 2021-P47
C/2020 F2 (ATLAS),h,07/16.3146/2022,163.5802,250.2586,48.3718,1.003986,8.816856,2000,4.5,4.0
# From MPEC 2021-O56
C/2020 F3 (NEOWISE),e,128.9504,61.0157,37.2826,339.6176,0.0001575,0.99913202,0.0000,07/03.6399/2020,2000,g  7.5,5.2
# From MPEC 2021-P47
C/2020 F5 (MASTER),h,03/24.4856/2021,51.7381,350.6025,311.1159,1.005014,4.326141,2000,6.5,3.2
# From MPEC 2020-L06
C/2020 F6 (PANSTARRS),e,174.5825,207.8918,344.6199,405.1950,0.0001208,0.99133506,0.0000,04/11.7212/2020,2000,g 14.5,2.8
# From MPEC 2021-P47
C/2020 F7 (Lemmon),e,93.9539,321.8871,227.9729,712.6434,0.0000518,0.99251785,0.0000,11/14.0327/2021,2000,g  7.0,4.0
# From MPEC 2020-KB7
C/2020 F8 (SWAN),e,110.7671,259.9892,68.1988,271.3732,0.0002205,0.99841541,0.0000,05/27.5851/2020,2000,g 10.0,4.0
# From MPEC 2020-L06
P/2020 G1 (Pimentel),e,18.4799,240.0947,207.6498,3.609955,0.1436982,0.85990027,76.9719,09/04.0/2021,2000,g 17.0,4.0
# From MPEC 2020-L06
C/2020 H2 (Pruyne),e,125.0279,277.6439,26.7075,191.0358,0.0003733,0.99563637,0.0000,04/27.6412/2020,2000,g 18.0,4.0
# From MPEC 2020-HM1
C/2020 H3 (Wierzchos),p,06/05.7162/2020,62.5292,30.4456,2.300288,270.6227,2000,13.5,4.0
# From MPEC 2020-L06
C/2020 H4 (Leonard),e,84.5139,307.7348,117.5928,48.09334,0.0029551,0.98073061,0.0000,08/29.5320/2020,2000,g 15.0,3.2
# From MPEC 2021-O56
C/2020 H5 (Robinson),e,70.2270,210.6326,326.4061,3475,0.0000048,0.99731099,0.0000,12/12.0423/2020,2000,g  5.0,4.0
# From MPEC 2021-P47
C/2020 H6 (ATLAS),h,10/01.0750/2021,79.9663,213.7062,20.3480,1.000750,4.702890,2000,8.0,3.2
# From MPEC 2020-KB7
C/2020 H7 (Lemmon),e,135.9235,323.5194,82.6780,1405,0.0000187,0.99685380,0.0000,06/02.9510/2020,2000,g 11.0,4.0
# From MPEC 2021-N06
